{
  "type": "FeatureCollection",
  "features": [
    {
      "type": "Feature",
      "geometry": { "type": "Point", "coordinates": [119.5, 24.0] },
      "properties": { "id": "taiwan_strait", "name": "TAIWAN STRAIT", "description": "Critical shipping lane, PLA activity", "dataType": "waterway" }
    },
    {
      "type": "Feature",
      "geometry": { "type": "Point", "coordinates": [101.5, 2.5] },
      "properties": { "id": "malacca_strait", "name": "MALACCA STRAIT", "description": "Major oil shipping route", "dataType": "waterway" }
    },
    {
      "type": "Feature",
      "geometry": { "type": "Point", "coordinates": [56.5, 26.5] },
      "properties": { "id": "hormuz_strait", "name": "STRAIT OF HORMUZ", "description": "Oil chokepoint, Iran control", "dataType": "waterway" }
    },
    {
      "type": "Feature",
      "geometry": { "type": "Point", "coordinates": [29.0, 41.1] },
      "properties": { "id": "bosphorus", "name": "BOSPHORUS STRAIT", "description": "Black Sea access, Turkey control", "dataType": "waterway" }
    },
    {
      "type": "Feature",
      "geometry": { "type": "Point", "coordinates": [32.3, 30.5] },
      "properties": { "id": "suez", "name": "SUEZ CANAL", "description": "Europe-Asia shipping", "dataType": "waterway" }
    },
    {
      "type": "Feature",
      "geometry": { "type": "Point", "coordinates": [-79.7, 9.1] },
      "properties": { "id": "panama", "name": "PANAMA CANAL", "description": "Americas shipping route", "dataType": "waterway" }
    }
  ]
}
